[{"OBJECT_NAME":"STARLINK-32102","OBJECT_ID":"2024-086T","EPOCH":"2026-03-09T00:51:02.773728","MEAN_MOTION":15.27593723,"ECCENTRICITY":9.547e-5,"INCLINATION":43.0039,"RA_OF_ASC_NODE":63.456,"ARG_OF_PERICENTER":211.18,"MEAN_ANOMALY":148.8995,"EPHEMERIS_TYPE":0,"CLASSIFICATION_TYPE":"U","NORAD_CAT_ID":59699,"ELEMENT_SET_NO":999,"REV_AT_EPOCH":10401,"BSTAR":0.0010690606,"MEAN_MOTION_DOT":0.00029285,"MEAN_MOTION_DDOT":0},{"OBJECT_NAME":"TRANSPORTER-1 OBJECT Z","OBJECT_ID":"2021-006Z","EPOCH":"2026-03-09T22:55:57.522432","MEAN_MOTION":15.30965056,"ECCENTRICITY":0.00100878,"INCLINATION":97.2377,"RA_OF_ASC_NODE":113.4736,"ARG_OF_PERICENTER":179.6869,"MEAN_ANOMALY":180.438,"EPHEMERIS_TYPE":0,"CLASSIFICATION_TYPE":"U","NORAD_CAT_ID":47436,"ELEMENT_SET_NO":999,"REV_AT_EPOCH":28420,"BSTAR":0.00024088983,"MEAN_MOTION_DOT":7.143e-5,"MEAN_MOTION_DDOT":0}]
